SL-16 R/B               
1 19650U 88102B   24278.88208968  .00000583  00000+0  31934-3 0  9990
2 19650  70.9995 167.2322 0012107  82.8729 277.3771 14.16017464853444
INTERCOSMOS 24          
1 20261U 89080A   24278.98144623  .00002410  00000+0  70518-3 0  9996
2 20261  82.6015  82.8938 1194089  60.1473 311.2911 12.58364169600869
SL-14 R/B               
1 20262U 89080C   24279.08105093  .00001186  00000+0  36256-3 0  9997
2 20262  82.5945 147.4355 1231794 294.4407  53.3104 12.49915685594669
DELTA 1 R/B             
1 20323U 89089B   24278.88075701  .00003611  00000+0  91627-3 0  9991
2 20323  97.1162 196.5802 0069199 327.7870  31.9109 14.49838680840777
ARIANE 40 R/B           
1 20443U 90005H   24279.16156864  .00002210  00000+0  72653-3 0  9998
2 20443  98.3824 342.3089 0009598 335.0359  25.0364 14.39194003818176
SL-14 R/B               
1 20466U 90010B   24278.81119619  .00003049  00000+0  37391-3 0  9998
2 20466  82.5052  36.3021 0019314 212.7915 147.2103 14.82716025851279
SL-14 R/B               
1 20511U 90018B   24278.80400828  .00002182  00000+0  27613-3 0  9994
2 20511  82.5249 349.7122 0016644  10.7199 349.4367 14.81328072845444
SL-16 R/B               
1 20625U 90046B   24279.17432646  .00000107  00000+0  80021-4 0  9993
2 20625  70.9998 310.9900 0014010   5.0302 355.0959 14.14884056775014
COSMOS 2084             
1 20663U 90055A   24279.13726305  .00010070  00000+0  73438-3 0  9992
2 20663  62.7910 305.0963 0098175 130.3661 230.6061 15.00393112858060
SL-6 R/B(2)             
1 20666U 90055D   24279.16987419  .00010351  00000+0  81398-3 0  9999
2 20666  62.7850 219.2113 0069150 154.8750 205.5739 14.99442774859486
SL-8 R/B                
1 20775U 90078B   24278.72714376  .00029522  00000+0  11284-2 0  9992
2 20775  82.9173 351.7932 0448427 298.4435  57.2275 14.65721134732348
SL-8 R/B                
1 21088U 91006B   24278.87679473  .00000353  00000+0  33979-3 0  9993
2 21088  82.9460 197.4577 0023829  55.6318   9.0782 13.77371759692375
OKEAN-3                 
1 21397U 91039A   24279.11985630  .00010756  00000+0  86873-3 0  9994
2 21397  82.5156 119.4706 0014629 302.4705  57.5104 14.99647940807945
COSMOS 2151             
1 21422U 91042A   24278.91519582  .00010528  00000+0  91590-3 0  9992
2 21422  82.4992 224.7871 0013979  26.6079 333.5858 14.96778985785196
ERS-1                   
1 21574U 91050A   24278.89110801  .00002152  00000+0  71143-3 0  9993
2 21574  98.7864 273.1189 0031429 308.2014  51.6344 14.38768953740829
ARIANE 40 R/B           
1 21610U 91050F   24278.78774174  .00002329  00000+0  72063-3 0  9999
2 21610  98.2780 337.5090 0002852 190.7833 169.3296 14.42137367743896
SL-8 R/B                
1 21876U 92008B   24278.55282758  .00000349  00000+0  34306-3 0  9992
2 21876  82.9233 295.3029 0035534 148.2928 324.1606 13.75860353637758
SL-8 R/B                
1 21938U 92020B   24278.85885860  .00000317  00000+0  31349-3 0  9990
2 21938  82.9341 180.5706 0028290 313.9506  89.7835 13.75443535629532
USA 81                  
1 21949U 92023A   24278.88920206  .00001320  00000+0  48471-3 0  9991
2 21949  85.0046  71.8591 0001067 100.9366 259.1947 14.32015166 20244
COSMOS 2221             
1 22236U 92080A   24278.89721897  .00010171  00000+0  97945-3 0  9994
2 22236  82.5058  56.6734 0016062 136.5573 223.6916 14.92758611702991
SL-16 R/B               
1 22566U 93016B   24279.15237221  .00000195  00000+0  12506-3 0  9998
2 22566  71.0072 228.3688 0009183  22.1882 337.9636 14.15172486628531
COSMOS 2242             
1 22626U 93024A   24278.85961964  .00010335  00000+0  99067-3 0  9992
2 22626  82.5224  43.5960 0016248 254.0913 105.8516 14.92941457702893
