OBJECT_NAME,OBJECT_ID,EPOCH,MEAN_MOTION,ECCENTRICITY,INCLINATION,RA_OF_ASC_NODE,ARG_OF_PERICENTER,MEAN_ANOMALY,EPHEMERIS_TYPE,CLASSIFICATION_TYPE,NORAD_CAT_ID,ELEMENT_SET_NO,REV_AT_EPOCH,BSTAR,MEAN_MOTION_DOT,MEAN_MOTION_DDOT
SL-16 R/B,1988-102B,2024-10-04T21:10:12.548352,14.16017464,0.0012107,70.9995,167.2322,82.8729,277.3771,0,U,19650,999,85344,3.19E-04,5.83E-06,0
INTERCOSMOS 24,1989-080A,2024-10-04T23:33:16.954272,12.58364169,0.1194089,82.6015,82.8938,60.1473,311.2911,0,U,20261,999,60086,7.05E-04,2.41E-05,0
SL-14 R/B,1989-080C,2024-10-05T01:56:42.800352,12.49915685,0.1231794,82.5945,147.4355,294.4407,53.3104,0,U,20262,999,59466,3.63E-04,1.19E-05,0
DELTA 1 R/B,1989-089B,2024-10-04T21:08:17.405664,14.4983868,0.0069199,97.1162,196.5802,327.787,31.9109,0,U,20323,999,84077,9.16E-04,3.61E-05,0
ARIANE 40 R/B,1990-005H,2024-10-05T03:52:39.530496,14.39194003,0.0009598,98.3824,342.3089,335.0359,25.0364,0,U,20443,999,81817,7.27E-04,2.21E-05,0
SL-14 R/B,1990-010B,2024-10-04T19:28:07.350816,14.82716025,0.0019314,82.5052,36.3021,212.7915,147.2103,0,U,20466,999,85127,3.74E-04,3.05E-05,0
SL-14 R/B,1990-018B,2024-10-04T19:17:46.315392,14.81328072,0.0016644,82.5249,349.7122,10.7199,349.4367,0,U,20511,999,84544,2.76E-04,2.18E-05,0
SL-16 R/B,1990-046B,2024-10-05T04:11:01.806144,14.14884056,0.001401,70.9998,310.99,5.0302,355.0959,0,U,20625,999,77501,8.00E-05,1.07E-06,0
COSMOS 2084,1990-055A,2024-10-05T03:17:39.527520,15.00393112,0.0098175,62.791,305.0963,130.3661,230.6061,0,U,20663,999,85806,7.34E-04,1.01E-04,0
SL-6 R/B(2),1990-055D,2024-10-05T04:04:37.130016,14.99442774,0.006915,62.785,219.2113,154.875,205.5739,0,U,20666,999,85948,8.14E-04,1.04E-04,0
SL-8 R/B,1990-078B,2024-10-04T17:27:05.220864,14.65721134,0.0448427,82.9173,351.7932,298.4435,57.2275,0,U,20775,999,73234,1.13E-03,2.95E-04,0
SL-8 R/B,1991-006B,2024-10-04T21:02:35.064672,13.77371759,0.0023829,82.946,197.4577,55.6318,9.0782,0,U,21088,999,69237,3.40E-04,3.53E-06,0
OKEAN-3,1991-039A,2024-10-05T02:52:35.584320,14.9964794,0.0014629,82.5156,119.4706,302.4705,57.5104,0,U,21397,999,80794,8.69E-04,1.08E-04,0
COSMOS 2151,1991-042A,2024-10-04T21:57:52.918848,14.96778985,0.0013979,82.4992,224.7871,26.6079,333.5858,0,U,21422,999,78519,9.16E-04,1.05E-04,0
ERS-1,1991-050A,2024-10-04T21:23:11.732064,14.38768953,0.0031429,98.7864,273.1189,308.2014,51.6344,0,U,21574,999,74082,7.11E-04,2.15E-05,0
ARIANE 40 R/B,1991-050F,2024-10-04T18:54:20.886336,14.42137367,0.0002852,98.278,337.509,190.7833,169.3296,0,U,21610,999,74389,7.21E-04,2.33E-05,0
SL-8 R/B,1992-008B,2024-10-04T13:16:04.302912,13.75860353,0.0035534,82.9233,295.3029,148.2928,324.1606,0,U,21876,999,63775,3.43E-04,3.49E-06,0
SL-8 R/B,1992-020B,2024-10-04T20:36:45.383040,13.75443535,0.002829,82.9341,180.5706,313.9506,89.7835,0,U,21938,999,62953,3.13E-04,3.17E-06,0
USA 81,1992-023A,2024-10-04T21:20:27.057984,14.32015166,0.0001067,85.0046,71.8591,100.9366,259.1947,0,U,21949,999,2024,4.85E-04,1.32E-05,0
COSMOS 2221,1992-080A,2024-10-04T21:31:59.719008,14.92758611,0.0016062,82.5058,56.6734,136.5573,223.6916,0,U,22236,999,70299,9.79E-04,1.02E-04,0
SL-16 R/B,1993-016B,2024-10-05T03:39:24.958944,14.15172486,0.0009183,71.0072,228.3688,22.1882,337.9636,0,U,22566,999,62853,1.25E-04,1.95E-06,0
COSMOS 2242,1993-024A,2024-10-04T20:37:51.136896,14.92941457,0.0016248,82.5224,43.596,254.0913,105.8516,0,U,22626,999,70289,9.91E-04,1.03E-04,0
